FENGYUN 1C DEB          
1 30041U 99025NS  17345.71426012  .00000167  00000-0  12252-3 0  9995
2 30041  99.4720 243.1419 0037126  28.3265  29.9068 14.09683551560861
